[{"OBJECT_NAME":"STARLINK-1556","OBJECT_ID":"2020-055G","EPOCH":"2026-03-10T00:00:02.999808","MEAN_MOTION":15.19594502,"ECCENTRICITY":0.00019373,"INCLINATION":53.1095,"RA_OF_ASC_NODE":124.8078,"ARG_OF_PERICENTER":90.9986,"MEAN_ANOMALY":131.2843,"EPHEMERIS_TYPE":0,"CLASSIFICATION_TYPE":"U","NORAD_CAT_ID":46033,"ELEMENT_SET_NO":999,"REV_AT_EPOCH":574,"BSTAR":0.005702776,"MEAN_MOTION_DOT":0.0012472,"MEAN_MOTION_DDOT":0},{"OBJECT_NAME":"OBJECT F","OBJECT_ID":"2024-153F","EPOCH":"2026-03-09T23:13:25.507776","MEAN_MOTION":15.23037528,"ECCENTRICITY":0.00053669,"INCLINATION":97.6558,"RA_OF_ASC_NODE":203.2719,"ARG_OF_PERICENTER":225.0651,"MEAN_ANOMALY":135.0151,"EPHEMERIS_TYPE":0,"CLASSIFICATION_TYPE":"U","NORAD_CAT_ID":60750,"ELEMENT_SET_NO":999,"REV_AT_EPOCH":8468,"BSTAR":0.00084475391,"MEAN_MOTION_DOT":0.00019856,"MEAN_MOTION_DDOT":0}]
